API VERSION: 1.2
API SOURCE: NASA/JPL Horizons API



*******************************************************************************
Ephemeris / API_USER Sun Dec 22 21:56:01 2024 Pasadena, USA      / Horizons
*******************************************************************************
Target body name: Earth (399)                     {source: DE441}
Center body name: Solar System Barycenter (0)     {source: DE441}
Center-site name: BODY CENTER
*******************************************************************************
Start time      : A.D. 2030-Jan-01 00:00:00.0000 TDB
Stop  time      : A.D. 2035-Dec-31 00:00:00.0000 TDB
Step-size       : 1440 minutes
*******************************************************************************
Center geodetic : 0.0, 0.0, 0.0                   {E-lon(deg),Lat(deg),Alt(km)}
Center cylindric: 0.0, 0.0, 0.0                   {E-lon(deg),Dxy(km),Dz(km)}
Center radii    : (undefined)
Output units    : KM-S
Calendar mode   : Mixed Julian/Gregorian
Output type     : GEOMETRIC cartesian states
Output format   : 2 (position and velocity)
Reference frame : Ecliptic of J2000.0
*******************************************************************************
            JDTDB,            Calendar Date (TDB),                      X,                      Y,                      Z,                     VX,                     VY,                     VZ,
**************************************************************************************************************************************************************************************************
$$SOE
2464179.500000000, A.D. 2034-Aug-05 00:00:00.0000,  1.012028945768591E+08, -1.130171670286278E+08,  2.950929481706768E+04,  2.158931796322182E+01,  1.987364693014766E+01, -7.260286486898693E-04,
2464180.500000000, A.D. 2034-Aug-06 00:00:00.0000,  1.030538031190521E+08, -1.112841934728900E+08,  2.944077772253007E+04,  2.125471511621942E+01,  2.024067693364833E+01, -8.703748722762583E-04,
2464181.500000000, A.D. 2034-Aug-07 00:00:00.0000,  1.048755227141305E+08, -1.095197195201256E+08,  2.935720976924896E+04,  2.091363252063112E+01,  2.060279330907415E+01, -1.073055302351023E-03,
2464182.500000000, A.D. 2034-Aug-08 00:00:00.0000,  1.066674898607787E+08, -1.077241780282416E+08,  2.925396776408702E+04,  2.056598998541935E+01,  2.095979579323696E+01, -1.323736212141213E-03,
2464183.500000000, A.D. 2034-Aug-09 00:00:00.0000,  1.084291354456706E+08, -1.058980210374550E+08,  2.912748722836375E+04,  2.021173999991214E+01,  2.131144197079839E+01, -1.608386551297691E-03,
2464184.500000000, A.D. 2034-Aug-10 00:00:00.0000,  1.101598881088029E+08, -1.040417230044241E+08,  2.897554000265151E+04,  1.985087988985720E+01,  2.165745736696212E+01, -1.910303167862004E-03,
2464185.500000000, A.D. 2034-Aug-11 00:00:00.0000,  1.118591785400561E+08, -1.021557829958403E+08,  2.879740883813053E+04,  1.948346096691149E+01,  2.199754941631340E+01, -2.211465489011744E-03,
2464186.500000000, A.D. 2034-Aug-12 00:00:00.0000,  1.135264443727909E+08, -1.002407255251748E+08,  2.859393291497231E+04,  1.910959286053268E+01,  2.233142470665471E+01, -2.494147549333192E-03,
2464187.500000000, A.D. 2034-Aug-13 00:00:00.0000,  1.151611351739925E+08, -9.829709982282333E+07,  2.836740953314304E+04,  1.872944117005196E+01,  2.265880754102082E+01, -2.742591124542670E-03,
2464188.500000000, A.D. 2034-Aug-14 00:00:00.0000,  1.167627169124310E+08, -9.632547756237632E+07,  2.812135955883563E+04,  1.834321778998562E+01,  2.297945648888249E+01, -2.944429920555436E-03,
2464189.500000000, A.D. 2034-Aug-15 00:00:00.0000,  1.183306753222484E+08, -9.432644937523550E+07,  2.786019214405119E+04,  1.795116547230017E+01,  2.329317535883871E+01, -3.091553385687007E-03,
2464190.500000000, A.D. 2034-Aug-16 00:00:00.0000,  1.198645178076757E+08, -9.230062074318150E+07,  2.758882565336674E+04,  1.755354019069902E+01,  2.359981646457310E+01, -3.180248266609453E-03,
2464191.500000000, A.D. 2034-Aug-17 00:00:00.0000,  1.213637738795347E+08, -9.024860793837979E+07,  2.731232590253651E+04,  1.715059542432773E+01,  2.389927652723771E+01, -3.210686313419586E-03,
2464192.500000000, A.D. 2034-Aug-18 00:00:00.0000,  1.228279944302943E+08, -8.817103455105232E+07,  2.703560818670690E+04,  1.674257132052494E+01,  2.419148769919499E+01, -3.186011182307880E-03,
2464193.500000000, A.D. 2034-Aug-19 00:00:00.0000,  1.242567503241406E+08, -8.606852888398166E+07,  2.676322426779568E+04,  1.632968965857641E+01,  2.447640701585584E+01, -3.111334018806033E-03,
2464194.500000000, A.D. 2034-Aug-20 00:00:00.0000,  1.256496307757653E+08, -8.394172222175556E+07,  2.649923081025109E+04,  1.591215374326520E+01,  2.475400707145393E+01, -2.992884467518664E-03,
2464195.500000000, A.D. 2034-Aug-21 00:00:00.0000,  1.270062418693612E+08, -8.179124778981332E+07,  2.624711929900944E+04,  1.549015142761570E+01,  2.502426954266610E+01, -2.837448712467605E-03,
2464196.500000000, A.D. 2034-Aug-22 00:00:00.0000,  1.283262054042241E+08, -7.961774012912317E+07,  2.600978083834052E+04,  1.506385935127303E+01,  2.528718204918500E+01, -2.652121761578030E-03,
2464197.500000000, A.D. 2034-Aug-23 00:00:00.0000,  1.296091581001278E+08, -7.742183460593729E+07,  2.578948004404455E+04,  1.463344679830766E+01,  2.554273807836727E+01, -2.444334515201874E-03,
2464198.500000000, A.D. 2034-Aug-24 00:00:00.0000,  1.308547510748813E+08, -7.520416681934366E+07,  2.558781729904562E+04,  1.419907796665743E+01,  2.579093928971895E+01, -2.222081945710386E-03,
2464199.500000000, A.D. 2034-Aug-25 00:00:00.0000,  1.320626494157014E+08, -7.296537173982917E+07,  2.540566593741998E+04,  1.376091173858956E+01,  2.603179925909933E+01, -1.994257711787739E-03,
2464200.500000000, A.D. 2034-Aug-26 00:00:00.0000,  1.332325315979446E+08, -7.070608250530168E+07,  2.524308011775836E+04,  1.331909829150033E+01,  2.626534742630167E+01, -1.770975406268249E-03,
2464201.500000000, A.D. 2034-Aug-27 00:00:00.0000,  1.343640884628108E+08, -6.842692892503119E+07,  2.509918093794957E+04,  1.287377228421803E+01,  2.649163159538999E+01, -1.563722270962131E-03,
2464202.500000000, A.D. 2034-Aug-28 00:00:00.0000,  1.354570214731725E+08, -6.612853590300959E+07,  2.497204305714741E+04,  1.242504314086292E+01,  2.671071693840092E+01, -1.385162367688153E-03,
2464203.500000000, A.D. 2034-Aug-29 00:00:00.0000,  1.365110400642807E+08, -6.381152217359477E+07,  2.485861976905167E+04,  1.197298424583678E+01,  2.692267946800115E+01, -1.248420590810539E-03,
2464204.500000000, A.D. 2034-Aug-30 00:00:00.0000,  1.375258581285926E+08, -6.147649988449663E+07,  2.475475528684631E+04,  1.151762436632584E+01,  2.712759292333770E+01, -1.165784075121579E-03,
2464205.500000000, A.D. 2034-Aug-31 00:00:00.0000,  1.385011900058459E+08, -5.912407556591886E+07,  2.465532998242229E+04,  1.105894546112568E+01,  2.732551022746490E+01, -1.146969617190408E-03,
2464206.500000000, A.D. 2034-Sep-01 00:00:00.0000,  1.394367466845359E+08, -5.675485280180135E+07,  2.455456044107676E+04,  1.059689010603504E+01,  2.751644350749695E+01, -1.197356734731869E-03,
2464207.500000000, A.D. 2034-Sep-02 00:00:00.0000,  1.403322330812246E+08, -5.436943648129030E+07,  2.444643431930989E+04,  1.013137871506639E+01,  2.770034849229269E+01, -1.316722782069846E-03,
2464208.500000000, A.D. 2034-Sep-03 00:00:00.0000,  1.411873471093435E+08, -5.196843801865399E+07,  2.432521651452407E+04,  9.662332844723178E+00,  2.787711830991429E+01, -1.498904381731947E-03,
2464209.500000000, A.D. 2034-Sep-04 00:00:00.0000,  1.420017808070938E+08, -4.955248062889522E+07,  2.418593994383886E+04,  9.189698498276551E+00,  2.804658831861624E+01, -1.732474070783141E-03,
2464210.500000000, A.D. 2034-Sep-05 00:00:00.0000,  1.427752232741961E+08, -4.712220378210747E+07,  2.402480275369808E+04,  8.713463990739054E+00,  2.820854963443516E+01, -2.002162617221970E-03,
2464211.500000000, A.D. 2034-Sep-06 00:00:00.0000,  1.435073648145038E+08, -4.467826627455828E+07,  2.383942627743259E+04,  8.233669863966535E+00,  2.836276682924368E+01, -2.290585766212772E-03,
2464212.500000000, A.D. 2034-Sep-07 00:00:00.0000,  1.441979016037143E+08, -4.222134774636386E+07,  2.362896485754102E+04,  7.750411406827173E+00,  2.850899563045765E+01, -2.579897807535758E-03,
2464213.500000000, A.D. 2034-Sep-08 00:00:00.0000,  1.448465403300230E+08, -3.975214876087482E+07,  2.339408358404227E+04,  7.263835892834783E+00,  2.864699829571972E+01, -2.853179161323993E-03,
2464214.500000000, A.D. 2034-Sep-09 00:00:00.0000,  1.454530024431502E+08, -3.727138968133408E+07,  2.313682921084017E+04,  6.774136546097542E+00,  2.877655607943860E+01, -3.095524159087759E-03,
2464215.500000000, A.D. 2034-Sep-10 00:00:00.0000,  1.460170277848479E+08, -3.477980858999548E+07,  2.286041906160861E+04,  6.281544374443955E+00,  2.889747896886768E+01, -3.294856137010527E-03,
2464216.500000000, A.D. 2034-Sep-11 00:00:00.0000,  1.465383774394764E+08, -3.227815848114436E+07,  2.256897087619454E+04,  5.786318338038415E+00,  2.900961272359933E+01, -3.442476944890416E-03,
2464217.500000000, A.D. 2034-Sep-12 00:00:00.0000,  1.470168356780889E+08, -2.976720397547935E+07,  2.226719772649370E+04,  5.288734303404202E+00,  2.911284282535200E+01, -3.533318714980638E-03,
2464218.500000000, A.D. 2034-Sep-13 00:00:00.0000,  1.474522109269415E+08, -2.724771784533291E+07,  2.196009544724785E+04,  4.789073708586515E+00,  2.920709484744246E+01, -3.565861932182557E-03,
2464219.500000000, A.D. 2034-Sep-14 00:00:00.0000,  1.478443357935074E+08, -2.472047766642132E+07,  2.165265140507370E+04,  4.287613331990580E+00,  2.929233121384020E+01, -3.541731302957984E-03,
2464220.500000000, A.D. 2034-Sep-15 00:00:00.0000,  1.481930663080008E+08, -2.218626288103997E+07,  2.134959930674732E+04,  3.784617566951005E+00,  2.936854510911582E+01, -3.465054072215423E-03,
2464221.500000000, A.D. 2034-Sep-16 00:00:00.0000,  1.484982806393985E+08, -1.964585246052434E+07,  2.105523475301825E+04,  3.280334058478717E+00,  2.943575296864460E+01, -3.341721424440891E-03,
